IRIDIUM 144             
1 43249U 18030A   24027.26364978  .00000099  00000+0  28258-4 0  9990
2 43249  86.3971 294.8130 0001922  86.7698 273.3717 14.34217838305169
IRIDIUM 149             
1 43250U 18030B   24027.26999328  .00000142  00000+0  43640-4 0  9996
2 43250  86.3972 294.7870 0001892  90.9855 269.1557 14.34217602305186
IRIDIUM 157             
1 43251U 18030C   24027.28901930  .00000544  00000+0  18733-3 0  9991
2 43251  86.3974 294.8126 0002339  83.9534 276.1928 14.34216404305164
IRIDIUM 140             
1 43252U 18030D   24027.23827919  .00000087  00000+0  23887-4 0  9990
2 43252  86.3974 294.8486 0001643  83.8794 276.2589 14.34217648305219
IRIDIUM 145             
1 43253U 18030E   24027.22559334  .00000170  00000+0  53476-4 0  9993
2 43253  86.3974 294.8282 0001835  93.5073 266.6333 14.34218680305144
IRIDIUM 146             
1 43254U 18030F   24027.27633514  .00000506  00000+0  17346-3 0  9990
2 43254  86.3972 294.8224 0001834  91.6675 268.4730 14.34217014305168
IRIDIUM 148             
1 43255U 18030G   24027.24461805  .00000061  00000+0  14821-4 0  9992
2 43255  86.3972 294.8653 0002118  93.5771 266.5667 14.34215465305198
IRIDIUM 142             
1 43256U 18030H   24027.28266945  .00000543  00000+0  18666-3 0  9990
2 43256  86.3970 294.7701 0001895  93.0125 267.1288 14.34221455305168
